{
    "links": {
        "self": "http://www.neowsapp.com/rest/v1/neo/3819563?api_key=iIulBulltgU6a56xZRHN4H3l9WmuAYTsLGpBGhQ2"
    },
    "id": "3819563",
    "neo_reference_id": "3819563",
    "name": "(2018 HV1)",
    "designation": "2018 HV1",
    "nasa_jpl_url": "http://ssd.jpl.nasa.gov/sbdb.cgi?sstr=3819563",
    "absolute_magnitude_h": 22.9,
    "estimated_diameter": {
        "kilometers": {
            "estimated_diameter_min": 0.0699125232,
            "estimated_diameter_max": 0.1563291544
        },
        "meters": {
            "estimated_diameter_min": 69.9125232246,
            "estimated_diameter_max": 156.3291544087
        },
        "miles": {
            "estimated_diameter_min": 0.0434416145,
            "estimated_diameter_max": 0.097138403
        },
        "feet": {
            "estimated_diameter_min": 229.3718026961,
            "estimated_diameter_max": 512.8909429502
        }
    },
    "is_potentially_hazardous_asteroid": false,
    "close_approach_data": [
        {
            "close_approach_date": "2018-05-06",
            "close_approach_date_full": "2018-May-06 18:40",
            "epoch_date_close_approach": 1525632000000,
            "relative_velocity": {
                "kilometers_per_second": "16.2692767167",
                "kilometers_per_hour": "58569.396180116",
                "miles_per_hour": "36392.7450875838"
            },
            "miss_distance": {
                "astronomical": "0.060812073",
                "lunar": "23.655896397",
                "kilometers": "9097356.59108451",
                "miles": "5652835.260245838"
            },
            "orbiting_body": "Earth"
        }
    ],
    "orbital_data": {
        "orbit_id": "5",
        "orbit_determination_date": "2018-05-05 07:01:27",
        "first_observation_date": "2018-04-21",
        "last_observation_date": "2018-05-05",
        "data_arc_in_days": 14,
        "observations_used": 48,
        "orbit_uncertainty": "8",
        "minimum_orbit_intersection": ".0494939",
        "jupiter_tisserand_invariant": "4.692",
        "epoch_osculation": "2458232.5",
        "eccentricity": ".501821028029056",
        "semi_major_axis": "1.366906811214334",
        "inclination": "3.392751799224322",
        "ascending_node_longitude": "103.769428750861",
        "orbital_period": "583.7229763573949",
        "perihelion_distance": ".6809642299908383",
        "perihelion_argument": "212.1500913572329",
        "aphelion_distance": "2.05284939243783",
        "perihelion_time": "2458299.999645117505",
        "mean_anomaly": "318.3708827191621",
        "mean_motion": ".6167309058939346",
        "equinox": "J2000",
        "orbit_class": {
            "orbit_class_type": "APO",
            "orbit_class_description": "Near-Earth asteroid orbits which cross the Earth’s orbit similar to that of 1862 Apollo",
            "orbit_class_range": "a (semi-major axis) > 1.0 AU; q (perihelion) < 1.017 AU"
        }
    },
    "is_sentry_object": false
}